{"type": "FeatureCollection", "features": [ {"type": "Feature", "properties": {"norad_id": 60453, "name": "LEGION 4", "group": "resource", "lat": -1.955387219469701, "lon": 77.61791540185351, "alt_km": 518.2022595362487, "timestamp": "2025-12-05T16:54:14.327661+00:00", "meta": {"OBJECT_NAME": "LEGION 4", "OBJECT_ID": "2024-146B", "EPOCH": "2025-12-05T07:25:31.706400", "MEAN_MOTION": 15.15704227, "ECCENTRICITY": 0.00099485, "INCLINATION": 45.0389, "RA_OF_ASC_NODE": 81.6898, "ARG_OF_PERICENTER": 272.3108, "MEAN_ANOMALY": 87.6632, "EPHEMERIS_TYPE": 0, "CLASSIFICATION_TYPE": "U", "NORAD_CAT_ID": 60453, "ELEMENT_SET_NO": 999, "REV_AT_EPOCH": 7145, "BSTAR": 0.00051611684, "MEAN_MOTION_DOT": 9.757e-05, "MEAN_MOTION_DDOT": 0}, "tle": {"line1": "1 60453U 24146B   25339.30939475  .00009757  00000+0  51612-3 0  9992", "line2": "2 60453  45.0389  81.6898 0009948 272.3108  87.6632 15.15704227 71455"}}, "geometry": {"type": "Point", "coordinates": [77.61791540185351, -1.955387219469701]}}, {"type": "Feature", "properties": {"norad_id": 60989, "name": "SENTINEL-2C", "group": "resource", "lat": 34.09264116678825, "lon": -121.86073252171508, "alt_km": 786.1837568032879, "timestamp": "2025-12-05T16:54:14.327670+00:00", "meta": {"OBJECT_NAME": "SENTINEL-2C", "OBJECT_ID": "2024-157A", "EPOCH": "2025-12-04T20:05:13.707744", "MEAN_MOTION": 14.30825432, "ECCENTRICITY": 0.000114, "INCLINATION": 98.5612, "RA_OF_ASC_NODE": 51.433, "ARG_OF_PERICENTER": 101.5737, "MEAN_ANOMALY": 258.5574, "EPHEMERIS_TYPE": 0, "CLASSIFICATION_TYPE": "U", "NORAD_CAT_ID": 60989, "ELEMENT_SET_NO": 999, "REV_AT_EPOCH": 6519, "BSTAR": 0.0001446, "MEAN_MOTION_DOT": 3.36e-06, "MEAN_MOTION_DDOT": 0}, "tle": {"line1": "1 60989U 24157A   25338.83696421  .00000336  00000+0  14460-3 0  9990", "line2": "2 60989  98.5612  51.4330 0001140 101.5737 258.5574 14.30825432 65190"}}, "geometry": {"type": "Point", "coordinates": [-121.86073252171508, 34.09264116678825]}}, {"type": "Feature", "properties": {"norad_id": 61735, "name": "IONOSFERA-M 1", "group": "resource", "lat": -74.00440935959766, "lon": -2.852477870983007, "alt_km": 824.1378788074417, "timestamp": "2025-12-05T16:54:14.327679+00:00", "meta": {"OBJECT_NAME": "IONOSFERA-M 1", "OBJECT_ID": "2024-199A", "EPOCH": "2025-12-05T07:15:44.761824", "MEAN_MOTION": 14.22711475, "ECCENTRICITY": 0.0001294, "INCLINATION": 98.7408, "RA_OF_ASC_NODE": 209.2076, "ARG_OF_PERICENTER": 32.2168, "MEAN_ANOMALY": 327.9089, "EPHEMERIS_TYPE": 0, "CLASSIFICATION_TYPE": "U", "NORAD_CAT_ID": 61735, "ELEMENT_SET_NO": 999, "REV_AT_EPOCH": 10013, "BSTAR": 9.0598939e-05, "MEAN_MOTION_DOT": 1.59e-06, "MEAN_MOTION_DDOT": 0}, "tle": {"line1": "1 61735U 24199A   25339.30260141  .00000159  00000+0  90599-4 0  9996", "line2": "2 61735  98.7408 209.2076 0001294  32.2168 327.9089 14.22711475100131"}}, "geometry": {"type": "Point", "coordinates": [-2.852477870983007, -74.00440935959766]}}, {"type": "Feature", "properties": {"norad_id": 61736, "name": "IONOSFERA-M 2", "group": "resource", "lat": 76.06855540067107, "lon": 171.18748026935353, "alt_km": 808.1632331961146, "timestamp": "2025-12-05T16:54:14.327688+00:00", "meta": {"OBJECT_NAME": "IONOSFERA-M 2", "OBJECT_ID": "2024-199B", "EPOCH": "2025-12-05T06:24:22.724352", "MEAN_MOTION": 14.22713622, "ECCENTRICITY": 0.00014403, "INCLINATION": 98.7407, "RA_OF_ASC_NODE": 209.0848, "ARG_OF_PERICENTER": 119.5825, "MEAN_ANOMALY": 240.5496, "EPHEMERIS_TYPE": 0, "CLASSIFICATION_TYPE": "U", "NORAD_CAT_ID": 61736, "ELEMENT_SET_NO": 999, "REV_AT_EPOCH": 10325, "BSTAR": 9.2717763e-05, "MEAN_MOTION_DOT": 1.63e-06, "MEAN_MOTION_DDOT": 0}, "tle": {"line1": "1 61736U 24199B   25339.26692968  .00000163  00000+0  92718-4 0  9998", "line2": "2 61736  98.7407 209.0848 0001440 119.5825 240.5496 14.22713622103252"}}, "geometry": {"type": "Point", "coordinates": [171.18748026935353, 76.06855540067107]}}, {"type": "Feature", "properties": {"norad_id": 63772, "name": "BIOMASS", "group": "resource", "lat": -37.84242764524941, "lon": -21.512158003383234, "alt_km": 675.973547763755, "timestamp": "2025-12-05T16:54:14.327697+00:00", "meta": {"OBJECT_NAME": "BIOMASS", "OBJECT_ID": "2025-090A", "EPOCH": "2025-12-05T06:05:40.852320", "MEAN_MOTION": 14.67545018, "ECCENTRICITY": 0.00012158, "INCLINATION": 98.0698, "RA_OF_ASC_NODE": 164.3722, "ARG_OF_PERICENTER": 80.3312, "MEAN_ANOMALY": 279.803, "EPHEMERIS_TYPE": 0, "CLASSIFICATION_TYPE": "U", "NORAD_CAT_ID": 63772, "ELEMENT_SET_NO": 999, "REV_AT_EPOCH": 3224, "BSTAR": 0.00050566051, "MEAN_MOTION_DOT": 2.821e-05, "MEAN_MOTION_DDOT": 0}, "tle": {"line1": "1 63772U 25090A   25339.25394505  .00002821  00000+0  50566-3 0  9993", "line2": "2 63772  98.0698 164.3722 0001215  80.3312 279.8030 14.67545018 32249"}}, "geometry": {"type": "Point", "coordinates": [-21.512158003383234, -37.84242764524941]}}, {"type": "Feature", "properties": {"norad_id": 64694, "name": "GOSAT-GW (IBUKI GW)", "group": "resource", "lat": 65.88071624748679, "lon": -103.06001559528328, "alt_km": 661.3656591832005, "timestamp": "2025-12-05T16:54:14.327706+00:00", "meta": {"OBJECT_NAME": "GOSAT-GW (IBUKI GW)", "OBJECT_ID": "2025-141A", "EPOCH": "2025-11-30T05:41:32.267328", "MEAN_MOTION": 14.67567435, "ECCENTRICITY": 0.00014369, "INCLINATION": 98.0401, "RA_OF_ASC_NODE": 269.9775, "ARG_OF_PERICENTER": 82.921, "MEAN_ANOMALY": 277.2158, "EPHEMERIS_TYPE": 0, "CLASSIFICATION_TYPE": "U", "NORAD_CAT_ID": 64694, "ELEMENT_SET_NO": 999, "REV_AT_EPOCH": 2266, "BSTAR": 0.00019762357, "MEAN_MOTION_DOT": 1.074e-05, "MEAN_MOTION_DDOT": 0}, "tle": {"line1": "1 64694U 25141A   25334.23717902  .00001074  00000+0  19762-3 0  9999", "line2": "2 64694  98.0401 269.9775 0001436  82.9210 277.2158 14.67567435 22660"}}, "geometry": {"type": "Point", "coordinates": [-103.06001559528328, 65.88071624748679]}}, {"type": "Feature", "properties": {"norad_id": 64876, "name": "IONOSFERA-M 3", "group": "resource", "lat": 23.826803564439505, "lon": 125.59147838499636, "alt_km": 819.7495980727963, "timestamp": "2025-12-05T16:54:14.327715+00:00", "meta": {"OBJECT_NAME": "IONOSFERA-M 3", "OBJECT_ID": "2025-155A", "EPOCH": "2025-12-05T07:43:36.450624", "MEAN_MOTION": 14.2143817, "ECCENTRICITY": 0.00023732, "INCLINATION": 98.5772, "RA_OF_ASC_NODE": 301.3984, "ARG_OF_PERICENTER": 71.6846, "MEAN_ANOMALY": 288.459, "EPHEMERIS_TYPE": 0, "CLASSIFICATION_TYPE": "U", "NORAD_CAT_ID": 64876, "ELEMENT_SET_NO": 999, "REV_AT_EPOCH": 1886, "BSTAR": 9.4037248e-05, "MEAN_MOTION_DOT": 1.63e-06, "MEAN_MOTION_DDOT": 0}, "tle": {"line1": "1 64876U 25155A   25339.32194966  .00000163  00000+0  94037-4 0  9997", "line2": "2 64876  98.5772 301.3984 0002373  71.6846 288.4590 14.21438170 18866"}}, "geometry": {"type": "Point", "coordinates": [125.59147838499636, 23.826803564439505]}}, {"type": "Feature", "properties": {"norad_id": 64877, "name": "IONOSFERA-M 4", "group": "resource", "lat": -23.465363680628958, "lon": -54.55400947361036, "alt_km": 825.9822493111251, "timestamp": "2025-12-05T16:54:14.327724+00:00", "meta": {"OBJECT_NAME": "IONOSFERA-M 4", "OBJECT_ID": "2025-155B", "EPOCH": "2025-12-05T06:52:44.842368", "MEAN_MOTION": 14.21439185, "ECCENTRICITY": 0.00017271, "INCLINATION": 98.5771, "RA_OF_ASC_NODE": 301.2838, "ARG_OF_PERICENTER": 71.1409, "MEAN_ANOMALY": 288.9956, "EPHEMERIS_TYPE": 0, "CLASSIFICATION_TYPE": "U", "NORAD_CAT_ID": 64877, "ELEMENT_SET_NO": 999, "REV_AT_EPOCH": 1885, "BSTAR": 9.4949243e-05, "MEAN_MOTION_DOT": 1.65e-06, "MEAN_MOTION_DDOT": 0}, "tle": {"line1": "1 64877U 25155B   25339.28663012  .00000165  00000+0  94949-4 0  9990", "line2": "2 64877  98.5771 301.2838 0001727  71.1409 288.9956 14.21439185 18852"}}, "geometry": {"type": "Point", "coordinates": [-54.55400947361036, -23.465363680628958]}}, {"type": "Feature", "properties": {"norad_id": 64899, "name": "MICROCARB", "group": "resource", "lat": -67.22420971925584, "lon": 74.74029323715982, "alt_km": 668.4938695839346, "timestamp": "2025-12-05T16:54:14.327733+00:00", "meta": {"OBJECT_NAME": "MICROCARB", "OBJECT_ID": "2025-156A", "EPOCH": "2025-12-05T04:09:54.351936", "MEAN_MOTION": 14.7203828, "ECCENTRICITY": 0.00166291, "INCLINATION": 98.0032, "RA_OF_ASC_NODE": 54.6401, "ARG_OF_PERICENTER": 168.2331, "MEAN_ANOMALY": 191.9268, "EPHEMERIS_TYPE": 0, "CLASSIFICATION_TYPE": "U", "NORAD_CAT_ID": 64899, "ELEMENT_SET_NO": 999, "REV_AT_EPOCH": 1942, "BSTAR": 0.00024834257, "MEAN_MOTION_DOT": 1.513e-05, "MEAN_MOTION_DDOT": 0}, "tle": {"line1": "1 64899U 25156A   25339.17354574  .00001513  00000+0  24834-3 0  9996", "line2": "2 64899  98.0032  54.6401 0016629 168.2331 191.9268 14.72038280 19425"}}, "geometry": {"type": "Point", "coordinates": [74.74029323715982, -67.22420971925584]}}, {"type": "Feature", "properties": {"norad_id": 64900, "name": "CO3D 3", "group": "resource", "lat": -15.680523118828784, "lon": -125.92819997775663, "alt_km": 509.63406059471527, "timestamp": "2025-12-05T16:54:14.327742+00:00", "meta": {"OBJECT_NAME": "CO3D 3", "OBJECT_ID": "2025-156B", "EPOCH": "2025-12-02T23:16:40.108224", "MEAN_MOTION": 15.2021179, "ECCENTRICITY": 0.00013753, "INCLINATION": 97.4352, "RA_OF_ASC_NODE": 53.4771, "ARG_OF_PERICENTER": 132.9697, "MEAN_ANOMALY": 227.1654, "EPHEMERIS_TYPE": 0, "CLASSIFICATION_TYPE": "U", "NORAD_CAT_ID": 64900, "ELEMENT_SET_NO": 999, "REV_AT_EPOCH": 1972, "BSTAR": 0.00042667501, "MEAN_MOTION_DOT": 9.183e-05, "MEAN_MOTION_DDOT": 0}, "tle": {"line1": "1 64900U 25156B   25336.96990866  .00009183  00000+0  42668-3 0  9999", "line2": "2 64900  97.4352  53.4771 0001375 132.9697 227.1654 15.20211790 19725"}}, "geometry": {"type": "Point", "coordinates": [-125.92819997775663, -15.680523118828784]}}]}